{
    "links": {
        "self": "http://www.neowsapp.com/rest/v1/neo/3117467?api_key=iIulBulltgU6a56xZRHN4H3l9WmuAYTsLGpBGhQ2"
    },
    "id": "3117467",
    "neo_reference_id": "3117467",
    "name": "(2002 FS6)",
    "designation": "2002 FS6",
    "nasa_jpl_url": "http://ssd.jpl.nasa.gov/sbdb.cgi?sstr=3117467",
    "absolute_magnitude_h": 24.8,
    "estimated_diameter": {
        "kilometers": {
            "estimated_diameter_min": 0.0291443905,
            "estimated_diameter_max": 0.0651688382
        },
        "meters": {
            "estimated_diameter_min": 29.1443904535,
            "estimated_diameter_max": 65.1688382168
        },
        "miles": {
            "estimated_diameter_min": 0.018109479,
            "estimated_diameter_max": 0.0404940262
        },
        "feet": {
            "estimated_diameter_min": 95.6180819754,
            "estimated_diameter_max": 213.8085311752
        }
    },
    "is_potentially_hazardous_asteroid": false,
    "close_approach_data": [
        {
            "close_approach_date": "2002-03-16",
            "close_approach_date_full": "2002-Mar-16 04:08",
            "epoch_date_close_approach": 1016251680000,
            "relative_velocity": {
                "kilometers_per_second": "7.8550527698",
                "kilometers_per_hour": "28278.1899712115",
                "miles_per_hour": "17570.9675407231"
            },
            "miss_distance": {
                "astronomical": "0.0417646588",
                "lunar": "16.2464522732",
                "kilometers": "6247903.997756756",
                "miles": "3882267.5210689928"
            },
            "orbiting_body": "Earth"
        }
    ],
    "orbital_data": {
        "orbit_id": "7",
        "orbit_determination_date": "2017-04-06 09:15:17",
        "first_observation_date": "2002-03-21",
        "last_observation_date": "2002-03-26",
        "data_arc_in_days": 5,
        "observations_used": 10,
        "orbit_uncertainty": "9",
        "minimum_orbit_intersection": ".0373686",
        "jupiter_tisserand_invariant": "3.886",
        "epoch_osculation": "2452356.5",
        "eccentricity": ".4525974546029308",
        "semi_major_axis": "1.83473971747486",
        "inclination": "7.533109162487573",
        "ascending_node_longitude": "1.439703820845267",
        "orbital_period": "907.737172591851",
        "perihelion_distance": "1.004341191486838",
        "perihelion_argument": "150.1750648198898",
        "aphelion_distance": "2.665138243462882",
        "perihelion_time": "2452330.085422196688",
        "mean_anomaly": "10.47577238909439",
        "mean_motion": ".3965905670383602",
        "equinox": "J2000",
        "orbit_class": {
            "orbit_class_type": "APO",
            "orbit_class_description": "Near-Earth asteroid orbits which cross the Earth’s orbit similar to that of 1862 Apollo",
            "orbit_class_range": "a (semi-major axis) > 1.0 AU; q (perihelion) < 1.017 AU"
        }
    },
    "is_sentry_object": false
}